[{"OBJECT_NAME":"OBJECT D","OBJECT_ID":"2024-174D","EPOCH":"2026-03-10T00:15:10.483200","MEAN_MOTION":15.28039787,"ECCENTRICITY":0.00110644,"INCLINATION":97.4441,"RA_OF_ASC_NODE":80.4677,"ARG_OF_PERICENTER":212.9968,"MEAN_ANOMALY":147.0582,"EPHEMERIS_TYPE":0,"CLASSIFICATION_TYPE":"U","NORAD_CAT_ID":61241,"ELEMENT_SET_NO":999,"REV_AT_EPOCH":8076,"BSTAR":0.00036340099,"MEAN_MOTION_DOT":9.884e-5,"MEAN_MOTION_DDOT":0},{"OBJECT_NAME":"STARLINK-32541","OBJECT_ID":"2024-207E","EPOCH":"2026-03-09T00:01:24.014496","MEAN_MOTION":15.2760625,"ECCENTRICITY":0.00024528,"INCLINATION":43.0043,"RA_OF_ASC_NODE":289.3603,"ARG_OF_PERICENTER":271.0814,"MEAN_ANOMALY":88.9756,"EPHEMERIS_TYPE":0,"CLASSIFICATION_TYPE":"U","NORAD_CAT_ID":61916,"ELEMENT_SET_NO":999,"REV_AT_EPOCH":7457,"BSTAR":0.0014287403,"MEAN_MOTION_DOT":0.00039296,"MEAN_MOTION_DDOT":0}]
